CCSDS_OMM_VERS = 2.0
CREATION_DATE  = 
ORIGINATOR     = 

OBJECT_NAME    = CZ-2C R/B
OBJECT_ID      = 2022-058K
CENTER_NAME    = EARTH
REF_FRAME      = TEME
TIME_SYSTEM    = UTC
MEAN_ELEMENT_THEORY = SGP/SGP4

EPOCH          = 2025-11-12T01:40:19.557120
MEAN_MOTION    = 15.46346763
ECCENTRICITY   = .00489785
INCLINATION    = 50.1902
RA_OF_ASC_NODE = 199.7115
ARG_OF_PERICENTER = 71.0574
MEAN_ANOMALY   = 289.5693

EPHEMERIS_TYPE = 0
CLASSIFICATION_TYPE = U
NORAD_CAT_ID   = 52794
ELEMENT_SET_NO = 999
REV_AT_EPOCH   = 19188
BSTAR          = .58627608E-3
MEAN_MOTION_DOT = .30542E-3
MEAN_MOTION_DDOT = 0

CCSDS_OMM_VERS = 2.0
CREATION_DATE  = 
ORIGINATOR     = 

OBJECT_NAME    = GSLV R/B
OBJECT_ID      = 2022-138AN
CENTER_NAME    = EARTH
REF_FRAME      = TEME
TIME_SYSTEM    = UTC
MEAN_ELEMENT_THEORY = SGP/SGP4

EPOCH          = 2025-11-12T05:17:20.453568
MEAN_MOTION    = 14.95887927
ECCENTRICITY   = .00199627
INCLINATION    = 87.3847
RA_OF_ASC_NODE = 205.6882
ARG_OF_PERICENTER = 212.9871
MEAN_ANOMALY   = 147.0116

EPHEMERIS_TYPE = 0
CLASSIFICATION_TYPE = U
NORAD_CAT_ID   = 54149
ELEMENT_SET_NO = 999
REV_AT_EPOCH   = 16636
BSTAR          = .62046477E-3
MEAN_MOTION_DOT = .6991E-4
MEAN_MOTION_DDOT = 0

CCSDS_OMM_VERS = 2.0
CREATION_DATE  = 
ORIGINATOR     = 

OBJECT_NAME    = XRISM
OBJECT_ID      = 2023-137A
CENTER_NAME    = EARTH
REF_FRAME      = TEME
TIME_SYSTEM    = UTC
MEAN_ELEMENT_THEORY = SGP/SGP4

EPOCH          = 2025-11-12T07:08:06.732096
MEAN_MOTION    = 15.09874548
ECCENTRICITY   = .00081215
INCLINATION    = 31.0032
RA_OF_ASC_NODE = 322.0313
ARG_OF_PERICENTER = 296.9071
MEAN_ANOMALY   = 63.0737

EPHEMERIS_TYPE = 0
CLASSIFICATION_TYPE = U
NORAD_CAT_ID   = 57800
ELEMENT_SET_NO = 999
REV_AT_EPOCH   = 12002
BSTAR          = .78488574E-3
MEAN_MOTION_DOT = .13139E-3
MEAN_MOTION_DDOT = 0

CCSDS_OMM_VERS = 2.0
CREATION_DATE  = 
ORIGINATOR     = 

OBJECT_NAME    = ACS3
OBJECT_ID      = 2024-077B
CENTER_NAME    = EARTH
REF_FRAME      = TEME
TIME_SYSTEM    = UTC
MEAN_ELEMENT_THEORY = SGP/SGP4

EPOCH          = 2025-11-11T21:27:57.919968
MEAN_MOTION    = 13.83518600
ECCENTRICITY   = .00534476
INCLINATION    = 97.3143
RA_OF_ASC_NODE = 278.3476
ARG_OF_PERICENTER = 26.8105
MEAN_ANOMALY   = 333.5800

EPHEMERIS_TYPE = 0
CLASSIFICATION_TYPE = U
NORAD_CAT_ID   = 59588
ELEMENT_SET_NO = 999
REV_AT_EPOCH   = 7787
BSTAR          = .27594576E-1
MEAN_MOTION_DOT = .30842E-3
MEAN_MOTION_DDOT = 0

