CZ-2C R/B               
1 52794U 22058K   25316.06967080  .00030542  00000+0  58628-3 0  9992
2 52794  50.1902 199.7115 0048978  71.0574 289.5693 15.46346763191883
GSLV R/B                
1 54149U 22138AN  25316.22037562  .00006991  00000+0  62046-3 0  9998
2 54149  87.3847 205.6882 0019962 212.9871 147.0116 14.95887927166362
XRISM                   
1 57800U 23137A   25316.29730014  .00013139  00000+0  78489-3 0  9994
2 57800  31.0032 322.0313 0008121 296.9071  63.0737 15.09874548120023
ACS3                    
1 59588U 24077B   25315.89442037  .00030842  00000+0  27595-1 0  9993
2 59588  97.3143 278.3476 0053447  26.8105 333.5800 13.83518600 77872
